[{"OBJECT_NAME":"STARLINK-34697","OBJECT_ID":"2025-150B","EPOCH":"2026-03-09T12:29:02.092704","MEAN_MOTION":14.98326239,"ECCENTRICITY":0.00036415,"INCLINATION":70.0018,"RA_OF_ASC_NODE":134.7957,"ARG_OF_PERICENTER":269.2497,"MEAN_ANOMALY":90.8245,"EPHEMERIS_TYPE":0,"CLASSIFICATION_TYPE":"U","NORAD_CAT_ID":64791,"ELEMENT_SET_NO":999,"REV_AT_EPOCH":3649,"BSTAR":0.00024806161,"MEAN_MOTION_DOT":2.868e-5,"MEAN_MOTION_DDOT":0},{"OBJECT_NAME":"COSMOS 886 DEB","OBJECT_ID":"1976-126BP","EPOCH":"2026-03-09T09:25:45.501600","MEAN_MOTION":13.48223291,"ECCENTRICITY":0.07109258,"INCLINATION":65.7793,"RA_OF_ASC_NODE":49.267,"ARG_OF_PERICENTER":88.0279,"MEAN_ANOMALY":57.007,"EPHEMERIS_TYPE":0,"CLASSIFICATION_TYPE":"U","NORAD_CAT_ID":14502,"ELEMENT_SET_NO":999,"REV_AT_EPOCH":14461,"BSTAR":0.00098756345,"MEAN_MOTION_DOT":2.959e-5,"MEAN_MOTION_DDOT":0}]
